{"type": "FeatureCollection", "features": [ {"type": "Feature", "properties": {"norad_id": 41556, "name": "ZIYUAN 3-02 (ZY 3-02)", "group": "resource", "lat": 52.22131356583352, "lon": -96.04578295040861, "alt_km": 494.3266456137071, "timestamp": "2025-12-26T08:37:54.227252+00:00", "meta": {"OBJECT_NAME": "ZIYUAN 3-02 (ZY 3-02)", "OBJECT_ID": "2016-033A", "EPOCH": "2025-12-26T04:55:01.070400", "MEAN_MOTION": 15.21245819, "ECCENTRICITY": 0.0011527, "INCLINATION": 97.4023, "RA_OF_ASC_NODE": 74.1459, "ARG_OF_PERICENTER": 195.9995, "MEAN_ANOMALY": 164.0879, "EPHEMERIS_TYPE": 0, "CLASSIFICATION_TYPE": "U", "NORAD_CAT_ID": 41556, "ELEMENT_SET_NO": 999, "REV_AT_EPOCH": 53168, "BSTAR": 0.00032963, "MEAN_MOTION_DOT": 7.307e-05, "MEAN_MOTION_DDOT": 0}, "tle": {"line1": "1 41556U 16033A   25360.20487350  .00007307  00000+0  32963-3 0  9991", "line2": "2 41556  97.4023  74.1459 0011527 195.9995 164.0879 15.21245819531687"}}, "geometry": {"type": "Point", "coordinates": [-96.04578295040861, 52.22131356583352]}}, {"type": "Feature", "properties": {"norad_id": 41599, "name": "CARTOSAT-2C", "group": "resource", "lat": -29.119709455805282, "lon": 61.66192689722109, "alt_km": 509.30451244415326, "timestamp": "2025-12-26T08:37:54.227262+00:00", "meta": {"OBJECT_NAME": "CARTOSAT-2C", "OBJECT_ID": "2016-040A", "EPOCH": "2025-12-26T04:01:06.194784", "MEAN_MOTION": 15.19238133, "ECCENTRICITY": 0.0010579, "INCLINATION": 97.4746, "RA_OF_ASC_NODE": 57.2776, "ARG_OF_PERICENTER": 20.1783, "MEAN_ANOMALY": 339.9868, "EPHEMERIS_TYPE": 0, "CLASSIFICATION_TYPE": "U", "NORAD_CAT_ID": 41599, "ELEMENT_SET_NO": 999, "REV_AT_EPOCH": 52744, "BSTAR": 0.00020994, "MEAN_MOTION_DOT": 4.36e-05, "MEAN_MOTION_DDOT": 0}, "tle": {"line1": "1 41599U 16040A   25360.16743281  .00004360  00000+0  20994-3 0  9996", "line2": "2 41599  97.4746  57.2776 0010579  20.1783 339.9868 15.19238133527448"}}, "geometry": {"type": "Point", "coordinates": [61.66192689722109, -29.119709455805282]}}, {"type": "Feature", "properties": {"norad_id": 41601, "name": "SKYSAT-C1", "group": "resource", "lat": -33.52888636571057, "lon": 41.26230013119223, "alt_km": 473.07842517464724, "timestamp": "2025-12-26T08:37:54.227272+00:00", "meta": {"OBJECT_NAME": "SKYSAT-C1", "OBJECT_ID": "2016-040C", "EPOCH": "2025-12-26T00:56:42.616032", "MEAN_MOTION": 15.32828423, "ECCENTRICITY": 8.32e-05, "INCLINATION": 96.9807, "RA_OF_ASC_NODE": 36.3031, "ARG_OF_PERICENTER": 314.1232, "MEAN_ANOMALY": 45.9943, "EPHEMERIS_TYPE": 0, "CLASSIFICATION_TYPE": "U", "NORAD_CAT_ID": 41601, "ELEMENT_SET_NO": 999, "REV_AT_EPOCH": 53131, "BSTAR": 0.00029756, "MEAN_MOTION_DOT": 9.364e-05, "MEAN_MOTION_DDOT": 0}, "tle": {"line1": "1 41601U 16040C   25360.03938213  .00009364  00000+0  29756-3 0  9991", "line2": "2 41601  96.9807  36.3031 0000832 314.1232  45.9943 15.32828423531313"}}, "geometry": {"type": "Point", "coordinates": [41.26230013119223, -33.52888636571057]}}, {"type": "Feature", "properties": {"norad_id": 41603, "name": "LAPAN-A3", "group": "resource", "lat": 55.50281126558801, "lon": -13.094330078246719, "alt_km": 470.0890958029222, "timestamp": "2025-12-26T08:37:54.227282+00:00", "meta": {"OBJECT_NAME": "LAPAN-A3", "OBJECT_ID": "2016-040E", "EPOCH": "2025-12-26T03:41:00.298752", "MEAN_MOTION": 15.3166153, "ECCENTRICITY": 0.0008647, "INCLINATION": 97.1436, "RA_OF_ASC_NODE": 357.2225, "ARG_OF_PERICENTER": 277.9042, "MEAN_ANOMALY": 82.1218, "EPHEMERIS_TYPE": 0, "CLASSIFICATION_TYPE": "U", "NORAD_CAT_ID": 41603, "ELEMENT_SET_NO": 999, "REV_AT_EPOCH": 52831, "BSTAR": 0.00014746, "MEAN_MOTION_DOT": 4.438e-05, "MEAN_MOTION_DDOT": 0}, "tle": {"line1": "1 41603U 16040E   25360.15347568  .00004438  00000+0  14746-3 0  9993", "line2": "2 41603  97.1436 357.2225 0008647 277.9042  82.1218 15.31661530528310"}}, "geometry": {"type": "Point", "coordinates": [-13.094330078246719, 55.50281126558801]}}, {"type": "Feature", "properties": {"norad_id": 41604, "name": "BIROS", "group": "resource", "lat": -25.529462376035692, "lon": 35.78806008071915, "alt_km": 295.4324221431252, "timestamp": "2025-12-26T08:37:54.227293+00:00", "meta": {"OBJECT_NAME": "BIROS", "OBJECT_ID": "2016-040F", "EPOCH": "2025-12-26T01:12:43.306272", "MEAN_MOTION": 15.95194722, "ECCENTRICITY": 0.0003999, "INCLINATION": 97.0651, "RA_OF_ASC_NODE": 32.0679, "ARG_OF_PERICENTER": 121.8836, "MEAN_ANOMALY": 238.283, "EPHEMERIS_TYPE": 0, "CLASSIFICATION_TYPE": "U", "NORAD_CAT_ID": 41604, "ELEMENT_SET_NO": 999, "REV_AT_EPOCH": 53084, "BSTAR": 0.00059209, "MEAN_MOTION_DOT": 0.00229911, "MEAN_MOTION_DDOT": 2.2393e-05}, "tle": {"line1": "1 41604U 16040F   25360.05050123  .00229911  22393-4  59209-3 0  9993", "line2": "2 41604  97.0651  32.0679 0003999 121.8836 238.2830 15.95194722530842"}}, "geometry": {"type": "Point", "coordinates": [35.78806008071915, -25.529462376035692]}}, {"type": "Feature", "properties": {"norad_id": 41727, "name": "GAOFEN-3", "group": "resource", "lat": 41.17002325323525, "lon": -166.83400218354052, "alt_km": 747.7857642587805, "timestamp": "2025-12-26T08:37:54.227303+00:00", "meta": {"OBJECT_NAME": "GAOFEN-3", "OBJECT_ID": "2016-049A", "EPOCH": "2025-12-26T04:39:46.941984", "MEAN_MOTION": 14.42217253, "ECCENTRICITY": 0.0001087, "INCLINATION": 98.4039, "RA_OF_ASC_NODE": 5.5751, "ARG_OF_PERICENTER": 55.3254, "MEAN_ANOMALY": 304.8038, "EPHEMERIS_TYPE": 0, "CLASSIFICATION_TYPE": "U", "NORAD_CAT_ID": 41727, "ELEMENT_SET_NO": 999, "REV_AT_EPOCH": 49371, "BSTAR": 7.981e-05, "MEAN_MOTION_DOT": 2.2e-06, "MEAN_MOTION_DDOT": 0}, "tle": {"line1": "1 41727U 16049A   25360.19429331  .00000220  00000+0  79810-4 0  9991", "line2": "2 41727  98.4039   5.5751 0001087  55.3254 304.8038 14.42217253493710"}}, "geometry": {"type": "Point", "coordinates": [-166.83400218354052, 41.17002325323525]}}, {"type": "Feature", "properties": {"norad_id": 41771, "name": "SKYSAT-C4", "group": "resource", "lat": 17.506328340440476, "lon": 22.685725017705703, "alt_km": 439.3281210768373, "timestamp": "2025-12-26T08:37:54.227313+00:00", "meta": {"OBJECT_NAME": "SKYSAT-C4", "OBJECT_ID": "2016-058B", "EPOCH": "2025-12-26T00:46:17.167296", "MEAN_MOTION": 15.42627652, "ECCENTRICITY": 0.000262, "INCLINATION": 96.9364, "RA_OF_ASC_NODE": 24.5747, "ARG_OF_PERICENTER": 122.1279, "MEAN_ANOMALY": 238.0225, "EPHEMERIS_TYPE": 0, "CLASSIFICATION_TYPE": "U", "NORAD_CAT_ID": 41771, "ELEMENT_SET_NO": 999, "REV_AT_EPOCH": 51872, "BSTAR": 0.00035001, "MEAN_MOTION_DOT": 0.00015166, "MEAN_MOTION_DDOT": 0}, "tle": {"line1": "1 41771U 16058B   25360.03214314  .00015166  00000+0  35001-3 0  9994", "line2": "2 41771  96.9364  24.5747 0002620 122.1279 238.0225 15.42627652518727"}}, "geometry": {"type": "Point", "coordinates": [22.685725017705703, 17.506328340440476]}}, {"type": "Feature", "properties": {"norad_id": 41772, "name": "SKYSAT-C5", "group": "resource", "lat": -62.753551629006274, "lon": -150.41306384527115, "alt_km": 468.1349406604859, "timestamp": "2025-12-26T08:37:54.227323+00:00", "meta": {"OBJECT_NAME": "SKYSAT-C5", "OBJECT_ID": "2016-058C", "EPOCH": "2025-12-26T02:52:36.392160", "MEAN_MOTION": 15.3411733, "ECCENTRICITY": 0.0004043, "INCLINATION": 97.0738, "RA_OF_ASC_NODE": 43.3114, "ARG_OF_PERICENTER": 226.167, "MEAN_ANOMALY": 133.924, "EPHEMERIS_TYPE": 0, "CLASSIFICATION_TYPE": "U", "NORAD_CAT_ID": 41772, "ELEMENT_SET_NO": 999, "REV_AT_EPOCH": 51721, "BSTAR": 0.00028335, "MEAN_MOTION_DOT": 9.284e-05, "MEAN_MOTION_DDOT": 0}, "tle": {"line1": "1 41772U 16058C   25360.11986565  .00009284  00000+0  28335-3 0  9994", "line2": "2 41772  97.0738  43.3114 0004043 226.1670 133.9240 15.34117330517214"}}, "geometry": {"type": "Point", "coordinates": [-150.41306384527115, -62.753551629006274]}}, {"type": "Feature", "properties": {"norad_id": 41773, "name": "SKYSAT-C2", "group": "resource", "lat": 56.20858906712364, "lon": 13.67578226174912, "alt_km": 447.18630881621993, "timestamp": "2025-12-26T08:37:54.227333+00:00", "meta": {"OBJECT_NAME": "SKYSAT-C2", "OBJECT_ID": "2016-058D", "EPOCH": "2025-12-26T00:34:32.743776", "MEAN_MOTION": 15.37567448, "ECCENTRICITY": 0.0002652, "INCLINATION": 97.0353, "RA_OF_ASC_NODE": 23.9884, "ARG_OF_PERICENTER": 353.6257, "MEAN_ANOMALY": 6.4955, "EPHEMERIS_TYPE": 0, "CLASSIFICATION_TYPE": "U", "NORAD_CAT_ID": 41773, "ELEMENT_SET_NO": 999, "REV_AT_EPOCH": 51840, "BSTAR": 0.000326, "MEAN_MOTION_DOT": 0.00011946, "MEAN_MOTION_DDOT": 0}, "tle": {"line1": "1 41773U 16058D   25360.02399009  .00011946  00000+0  32600-3 0  9994", "line2": "2 41773  97.0353  23.9884 0002652 353.6257   6.4955 15.37567448518408"}}, "geometry": {"type": "Point", "coordinates": [13.67578226174912, 56.20858906712364]}}, {"type": "Feature", "properties": {"norad_id": 41774, "name": "SKYSAT-C3", "group": "resource", "lat": -57.95521683070649, "lon": -157.72857462114595, "alt_km": 439.8990951568485, "timestamp": "2025-12-26T08:37:54.227343+00:00", "meta": {"OBJECT_NAME": "SKYSAT-C3", "OBJECT_ID": "2016-058E", "EPOCH": "2025-12-26T01:23:02.725152", "MEAN_MOTION": 15.44872099, "ECCENTRICITY": 0.0002136, "INCLINATION": 96.9285, "RA_OF_ASC_NODE": 33.1854, "ARG_OF_PERICENTER": 105.3286, "MEAN_ANOMALY": 254.82, "EPHEMERIS_TYPE": 0, "CLASSIFICATION_TYPE": "U", "NORAD_CAT_ID": 41774, "ELEMENT_SET_NO": 999, "REV_AT_EPOCH": 51931, "BSTAR": 0.0004046, "MEAN_MOTION_DOT": 0.00018932, "MEAN_MOTION_DDOT": 0}, "tle": {"line1": "1 41774U 16058E   25360.05767043  .00018932  00000+0  40460-3 0  9990", "line2": "2 41774  96.9285  33.1854 0002136 105.3286 254.8200 15.44872099519314"}}, "geometry": {"type": "Point", "coordinates": [-157.72857462114595, -57.95521683070649]}}]}